MESON-1                 
1 59131U 24043AK  26068.90019075  .00008544  00000+0  29748-3 0  9998
2 59131  97.5469 205.2839 0009545 227.1432 132.9007 15.29893494111890
STARLINK-35776          
1 66282U 25247T   26068.57468242  .00026985  00000+0  91943-3 0  9992
2 66282  53.1585 192.1456 0004432 169.0522 191.0576 15.30210742 21017
